EWS-G2 (GOES 15)        
1 36411U 10008A   25106.40947457  .00000048  00000+0  00000+0 0  9998
2 36411   0.1686  86.1757 0001902 196.7226 130.6731  1.00274789 55354
GOES 16                 
1 41866U 16071A   25106.87575318 -.00000210  00000+0  00000+0 0  9990
2 41866   0.0598 281.3915 0000889 172.5776 348.1182  1.00132862 30821
GOES 17                 
1 43226U 18022A   25106.87054037 -.00000082  00000+0  00000+0 0  9997
2 43226   0.0223 297.8274 0002470 148.1787 328.2608  1.00272647 26145
GOES 18                 
1 51850U 22021A   25106.72136409  .00000107  00000+0  00000+0 0  9998
2 51850   0.0025 306.7019 0000405 145.4288 235.6703  1.00272537  2314
GOES 19                 
1 60133U 24119A   25106.58725352 -.00000238  00000+0  00000+0 0  9993
2 60133   0.0529  61.1689 0000752 332.7222 307.3284  1.00272129  2684
